OBJECT_NAME,OBJECT_ID,EPOCH,MEAN_MOTION,ECCENTRICITY,INCLINATION,RA_OF_ASC_NODE,ARG_OF_PERICENTER,MEAN_ANOMALY,EPHEMERIS_TYPE,CLASSIFICATION_TYPE,NORAD_CAT_ID,ELEMENT_SET_NO,REV_AT_EPOCH,BSTAR,MEAN_MOTION_DOT,MEAN_MOTION_DDOT
BEIDOU-2 IGSO-3,2011-013A,2026-07-16T21:03:18.283680,1.00260325,.00356242,62.4493,39.8703,183.4987,133.5485,0,U,37384,999,5595,0,-.17E-5,0
INTELSAT 28 (IS-28),2011-016A,2026-07-17T09:41:59.844768,1.00271929,.0003765,1.8825,82.2557,40.7743,285.9811,0,U,37392,999,5358,0,-.236E-5,0
YAHSAT 1A,2011-016B,2026-07-17T10:05:57.549408,1.00271845,.0003227,0.0205,69.8766,46.5689,22.7993,0,U,37393,999,4271,0,0,0
SBIRS GEO-1 (USA 230),2011-019A,2026-07-17T16:30:38.657088,1.00272585,.0001886,4.6014,53.0953,58.4605,123.4117,0,U,37481,999,5570,0,.89E-6,0
TELSTAR 14R,2011-021A,2026-07-17T12:55:14.412864,0.98980309,.0008295,0.0899,85.0083,290.9762,38.8505,0,U,37602,999,5613,0,-.105E-5,0
GSAT-8,2011-022A,2026-07-17T15:14:42.747936,1.00271492,.000257,2.2080,81.4499,158.3855,339.3797,0,U,37605,999,5352,0,.74E-6,0
ST-2,2011-022B,2026-07-17T15:24:11.837952,1.00271536,.0001621,0.0160,81.4633,51.4728,121.5885,0,U,37606,999,5558,0,-.221E-5,0
ZHONGXING-10,2011-026A,2026-07-17T13:40:49.797984,1.00273747,.0003457,1.1237,83.8532,20.9982,121.2259,0,U,37677,999,5530,0,-.199E-5,0
SES-3,2011-035A,2026-07-17T14:29:39.905376,1.00271565,.0002047,1.4034,82.7499,34.0906,293.0027,0,U,37748,999,5489,0,-.112E-5,0
KAZSAT-2,2011-035B,2026-07-17T14:03:38.597760,1.00272851,.0002012,0.0276,113.3809,59.1788,60.2597,0,U,37749,999,5370,0,-.207E-5,0
BEIDOU-2 IGSO-4,2011-038A,2026-07-12T21:52:21.720000,1.00279714,.01603423,54.6038,165.4445,231.4539,316.2369,0,U,37763,999,5490,0,-.17E-6,0
ASTRA 1N,2011-041A,2026-07-17T15:04:29.066016,1.00270946,.000585,0.0627,14.9183,100.4857,65.3298,0,U,37775,999,4483,0,.11E-5,0
BSAT-3C (JCSAT-110R),2011-041B,2026-07-17T17:07:38.648064,1.00270565,.0000299,0.0357,302.2852,245.7566,114.3389,0,U,37776,999,5077,0,-.36E-5,0
PAKSAT-1R,2011-042A,2026-07-17T13:27:11.349792,1.00269977,.0003132,0.7659,84.3103,352.1453,98.6752,0,U,37779,999,5478,0,.144E-5,0
SES-2,2011-049A,2026-07-17T14:34:09.474240,1.00271893,.0002726,0.1342,90.9036,22.8715,313.1765,0,U,37809,999,5426,0,-.205E-5,0
ARABSAT-5C,2011-049B,2026-07-17T15:04:44.041728,1.00272506,.0003548,0.0530,26.1084,106.8481,48.6558,0,U,37810,999,5434,0,.114E-5,0
EUTELSAT 7 WEST A,2011-051A,2026-07-17T09:48:59.175072,1.00271240,.0004697,0.0610,353.7167,134.9013,306.5221,0,U,37816,999,5418,0,-.7E-6,0
QUETZSAT 1,2011-054A,2026-07-17T09:29:08.577024,1.00272541,.0002744,0.0475,269.0353,211.6058,239.8531,0,U,37826,999,5017,0,-.251E-5,0
INTELSAT 18 (IS-18),2011-056A,2026-07-17T13:30:38.696832,1.00272563,.0001836,0.0446,250.7447,237.8986,189.3875,0,U,37834,999,5411,0,.43E-6,0
EUTELSAT 16A,2011-057A,2026-07-17T15:03:36.648864,1.00268894,.0005578,0.0425,26.7291,89.6768,60.9532,0,U,37836,999,764,0,.94E-6,0
VIASAT-1,2011-059A,2026-07-17T12:43:38.027136,1.00275659,.0002491,0.0198,55.7035,57.8261,257.6279,0,U,37843,999,4762,0,0,0
ASIASAT 7,2011-069A,2026-07-17T18:43:43.860864,1.00271019,.0001277,0.0226,74.5487,14.8637,232.6250,0,U,37933,999,4516,0,-.343E-5,0
BEIDOU-2 IGSO-5,2011-073A,2026-07-02T17:30:18.330912,1.00270596,.01145273,47.6496,271.3544,222.0502,141.5350,0,U,37948,999,5329,0,-.128E-5,0
LUCH-5A,2011-074B,2026-07-17T10:38:40.471872,1.00273524,.0002697,8.8289,73.3611,60.5604,128.0075,0,U,37951,999,5335,0,-.62E-6,0
NIGCOMSAT 1R,2011-077A,2026-07-17T15:11:13.082784,1.00272179,.0002476,0.0323,111.1686,238.7296,215.8318,0,U,38014,999,5326,0,.135E-5,0
WGS F4 (USA 233),2012-003A,2026-07-17T15:24:11.837952,1.00271425,.0000662,0.0196,49.5628,109.5867,95.7595,0,U,38070,999,4445,0,-.224E-5,0
SES-4,2012-007A,2026-07-17T14:52:37.702848,1.00271872,.0002449,0.0216,39.3753,79.3831,17.8385,0,U,38087,999,5253,0,-.178E-5,0
BEIDOU-2 G5,2012-008A,2026-07-17T17:45:11.575584,1.00271040,.0007302,3.6482,69.5041,268.8049,282.1930,0,U,38091,999,5267,0,.47E-6,0
MUOS-1,2012-009A,2026-07-17T14:30:32.319936,1.00271632,.0056694,5.5361,47.1105,3.5793,2.4152,0,U,38093,999,5275,0,-.139E-5,0
INTELSAT 22 (IS-22),2012-011A,2026-07-17T15:19:34.780800,1.00271947,.000184,0.0198,51.8095,75.5737,110.0623,0,U,38098,999,749,0,-.68E-6,0
APSTAR-7,2012-013A,2026-07-17T15:39:56.526912,1.00271028,.0002988,0.0282,92.9877,34.6146,119.3472,0,U,38107,999,5211,0,-.111E-5,0
YAHSAT 1B,2012-016A,2026-07-17T16:30:38.657088,1.00270248,.0002775,0.0884,88.7185,33.0533,108.9842,0,U,38245,999,4591,0,.117E-5,0
AEHF-2 (USA 235),2012-019A,2026-07-17T09:46:21.927072,1.00272077,.0002177,6.7179,57.2574,60.9248,307.1499,0,U,38254,999,729,0,-.147E-5,0
JCSAT-13,2012-023A,2026-07-17T16:59:38.708160,1.00269154,.0002552,0.0208,44.6071,80.2554,189.5543,0,U,38331,999,5184,0,-.366E-5,0
VINASAT-2,2012-023B,2026-07-17T15:36:37.482912,1.00269823,.0002254,0.0220,330.0988,148.7134,182.6415,0,U,38332,999,4696,0,-.338E-5,0
NIMIQ 6,2012-026A,2026-07-17T14:32:54.593088,1.00271456,.0002773,0.0648,264.8180,216.2756,301.4539,0,U,38342,999,5071,0,-.183E-5,0
ZHONGXING-2A,2012-028A,2026-07-17T17:30:38.547648,1.00269492,.0001436,1.5317,83.4860,41.2766,171.6796,0,U,38352,999,5160,0,-.302E-5,0
INTELSAT 19 (IS-19),2012-030A,2026-07-17T14:03:42.393312,1.00271767,.0002885,0.0190,44.2337,71.8923,196.1845,0,U,38356,999,5075,0,-.66E-6,0
ECHOSTAR 17,2012-035A,2026-07-17T14:28:32.513376,1.00270630,.0002096,0.0196,48.1304,63.4933,293.8193,0,U,38551,999,5136,0,-.85E-6,0
METEOSAT-10 (MSG-3),2012-035B,2026-07-17T08:08:24.217152,1.00271443,.0001249,4.7414,60.8716,16.5280,339.9011,0,U,38552,999,5115,0,-.19E-6,0
SES-5,2012-036A,2026-07-17T08:09:31.609152,1.00271177,.0001941,0.0440,323.0634,153.8762,305.5707,0,U,38652,999,4475,0,.24E-6,0
INTELSAT 20 (IS-20),2012-043A,2026-07-17T15:18:34.877088,1.00271078,.0001289,0.0124,65.4071,115.9588,52.2353,0,U,38740,999,5105,0,-.34E-6,0
HYLAS 2,2012-043B,2026-07-17T13:21:38.409984,1.00272369,.000236,2.5039,80.6994,55.6991,286.8042,0,U,38741,999,5107,0,-.268E-5,0
INTELSAT 21 (IS-21),2012-045A,2026-07-17T13:31:37.898112,1.00272129,.0001623,0.0475,245.0896,241.9620,313.2362,0,U,38749,999,5082,0,-.294E-5,0
ASTRA 2F,2012-051A,2026-07-17T15:07:06.314016,1.00270698,.0003015,0.0825,255.3021,287.4853,7.5804,0,U,38778,999,4144,0,.14E-5,0
GSAT-10,2012-051B,2026-07-17T15:22:41.981952,1.00272763,.0007473,0.0845,264.3661,190.5163,154.2437,0,U,38779,999,5040,0,-.174E-5,0
INTELSAT 23 (IS-23),2012-057A,2026-07-17T13:38:24.656352,1.00263006,.0000697,0.0156,321.6967,290.4436,194.8096,0,U,38867,999,5026,0,-.294E-5,0
BEIDOU-2 G6,2012-059A,2026-07-17T15:22:56.959392,1.00273311,.0008737,4.4967,73.1916,327.2293,209.7710,0,U,38953,999,5021,0,-.187E-5,0
LUCH-5B,2012-061A,2026-07-17T09:46:21.927936,1.00270281,.0003861,10.5476,49.5786,147.7149,228.2352,0,U,38977,999,4991,0,-.151E-5,0
YAMAL 300K,2012-061B,2026-07-17T12:25:54.724800,1.00273444,.00005876,0.0163,78.7629,81.7254,144.2891,0,U,38978,999,4993,0,0,0
STAR ONE C3,2012-062A,2026-07-17T13:20:50.411328,1.00272842,.0002215,0.0201,44.4861,79.1544,296.9456,0,U,38991,999,5006,0,-.259E-5,0
EUTELSAT 21B,2012-062B,2026-07-17T17:15:35.683200,1.00272327,.0003248,0.0695,340.0109,143.0341,92.9430,0,U,38992,999,5013,0,.121E-5,0
ECHOSTAR 16,2012-065A,2026-07-17T11:16:15.796128,1.00273927,.0002375,0.0187,49.5890,65.8361,287.4250,0,U,39008,999,4994,0,-.292E-5,0
ZHONGXING-12,2012-067A,2026-07-17T03:25:23.797056,1.00271179,.00025742,0.0387,94.6280,20.5009,318.6779,0,U,39017,999,4980,0,-.217E-5,0
EUTELSAT 70B,2012-069A,2026-07-17T14:39:36.309888,1.00271593,.0003606,0.0612,6.3348,109.6082,109.8751,0,U,39020,999,4981,0,-.53E-6,0
YAMAL 402,2012-070A,2026-07-17T15:14:42.748800,1.00270777,.0003685,1.3409,83.7800,27.0338,108.1992,0,U,39022,999,4970,0,.76E-6,0
SKYNET 5D,2012-075A,2026-07-17T16:30:38.657088,1.00271409,.0003502,0.0681,3.7007,121.2439,110.9536,0,U,39034,999,4946,0,.9E-6,0
MEXSAT 3,2012-075B,2026-07-17T14:26:17.726784,1.00269156,.0001181,0.0228,67.7316,42.0141,287.4587,0,U,39035,999,735,0,0,0
TDRS 11,2013-004A,2026-07-17T15:57:17.004960,1.00264137,.0005504,3.5652,31.7321,29.5709,299.3738,0,U,39070,999,4699,0,.69E-6,0
AMAZONAS 3,2013-006A,2026-07-17T12:58:59.053728,1.00271564,.0003355,0.0043,227.8121,284.1089,277.1793,0,U,39078,999,4521,0,-.292E-5,0
AZERSPACE 1,2013-006B,2026-07-17T16:30:38.657088,1.00271617,.0001878,0.0176,39.8319,109.9073,79.3934,0,U,39079,999,4911,0,.124E-5,0
SBIRS GEO-2 (USA 241),2013-011A,2026-07-17T13:47:05.146368,1.00271370,.0001998,4.5531,52.5031,57.9485,341.9109,0,U,39120,999,4884,0,-.297E-5,0
EUTELSAT 117 WEST A,2013-012A,2026-07-17T14:25:47.776224,1.00270656,.0002756,0.0449,272.0454,203.7956,279.2163,0,U,39122,999,4873,0,-.22E-6,0
ANIK G1,2013-014A,2026-07-17T14:28:25.025088,1.00271740,.0001773,0.0434,235.0190,250.2803,279.9131,0,U,39127,999,4855,0,-.83E-6,0
ZHONGXING-11,2013-020A,2026-07-17T18:12:41.063904,1.00268684,.0001942,0.0519,274.5990,170.1094,221.8968,0,U,39157,999,4820,0,-.299E-5,0
EUTELSAT 7B,2013-022A,2026-07-17T15:01:06.890016,1.00270137,.0003285,0.0681,342.8708,64.6544,120.1849,0,U,39163,999,4825,0,.38E-6,0
WGS F5 (USA 243),2013-024A,2026-07-17T11:18:45.555840,1.00269113,.0000066,0.0217,68.8405,165.6259,178.0210,0,U,39168,999,4747,0,0,0
SES-6,2013-026A,2026-07-17T11:22:15.221856,1.00272388,.0002618,0.0188,352.3143,104.4319,328.6094,0,U,39172,999,4802,0,-.271E-5,0
IRNSS-1A,2013-034A,2026-07-10T17:17:25.712736,1.00281941,.0017567,35.7704,63.5328,183.4462,356.2994,0,U,39199,999,4760,0,.47E-6,0
MUOS-2,2013-036A,2026-07-17T10:00:38.892384,1.00272770,.0052872,5.0536,45.5538,176.3746,35.4280,0,U,39206,999,4749,0,-.24E-6,0
ALPHASAT,2013-038A,2026-07-17T17:46:06.449952,1.00271062,.0002251,2.9999,1.1902,136.1888,89.5602,0,U,39215,999,4432,0,.124E-5,0
INSAT-3D,2013-038B,2026-07-17T17:15:01.232064,1.00267572,.0000573,2.0031,82.1544,71.0599,170.5381,0,U,39216,999,4738,0,-.35E-5,0
WGS F6 (USA 244),2013-041A,2026-07-17T14:20:33.276768,1.00272163,.0000278,0.0185,49.1930,54.6241,271.5371,0,U,39222,999,4636,0,.79E-6,0
